{"type": "FeatureCollection", "features": [ {"type": "Feature", "properties": {"norad_id": 33492, "name": "GOSAT (IBUKI)", "group": "resource", "lat": -79.44702051203748, "lon": -128.16595508275003, "alt_km": 676.9608471325364, "timestamp": "2025-12-18T23:35:48.703853+00:00", "meta": {"OBJECT_NAME": "GOSAT (IBUKI)", "OBJECT_ID": "2009-002A", "EPOCH": "2025-12-18T14:13:09.624864", "MEAN_MOTION": 14.67536615, "ECCENTRICITY": 9.952e-05, "INCLINATION": 98.0772, "RA_OF_ASC_NODE": 101.1145, "ARG_OF_PERICENTER": 99.5034, "MEAN_ANOMALY": 260.6283, "EPHEMERIS_TYPE": 0, "CLASSIFICATION_TYPE": "U", "NORAD_CAT_ID": 33492, "ELEMENT_SET_NO": 999, "REV_AT_EPOCH": 90497, "BSTAR": 0.00012115353, "MEAN_MOTION_DOT": 6.39e-06, "MEAN_MOTION_DDOT": 0}, "tle": {"line1": "1 33492U 09002A   25352.59247251  .00000639  00000+0  12115-3 0  9994", "line2": "2 33492  98.0772 101.1145 0000995  99.5034 260.6283 14.67536615904972"}}, "geometry": {"type": "Point", "coordinates": [-128.16595508275003, -79.44702051203748]}}, {"type": "Feature", "properties": {"norad_id": 35681, "name": "DEIMOS-1", "group": "resource", "lat": 32.36548253023609, "lon": -21.776646336608344, "alt_km": 643.0058064747955, "timestamp": "2025-12-18T23:35:48.703864+00:00", "meta": {"OBJECT_NAME": "DEIMOS-1", "OBJECT_ID": "2009-041A", "EPOCH": "2025-12-18T14:47:28.123872", "MEAN_MOTION": 14.74961023, "ECCENTRICITY": 0.00026337, "INCLINATION": 97.7142, "RA_OF_ASC_NODE": 152.9455, "ARG_OF_PERICENTER": 70.4379, "MEAN_ANOMALY": 289.7115, "EPHEMERIS_TYPE": 0, "CLASSIFICATION_TYPE": "U", "NORAD_CAT_ID": 35681, "ELEMENT_SET_NO": 999, "REV_AT_EPOCH": 88026, "BSTAR": 7.2340544e-05, "MEAN_MOTION_DOT": 4.39e-06, "MEAN_MOTION_DDOT": 0}, "tle": {"line1": "1 35681U 09041A   25352.61629773  .00000439  00000+0  72341-4 0  9991", "line2": "2 35681  97.7142 152.9455 0002633  70.4379 289.7115 14.74961023880264"}}, "geometry": {"type": "Point", "coordinates": [-21.776646336608344, 32.36548253023609]}}, {"type": "Feature", "properties": {"norad_id": 35682, "name": "DUBAISAT-1", "group": "resource", "lat": 72.60144614798998, "lon": 96.97826826482789, "alt_km": 644.539226742997, "timestamp": "2025-12-18T23:35:48.703874+00:00", "meta": {"OBJECT_NAME": "DUBAISAT-1", "OBJECT_ID": "2009-041B", "EPOCH": "2025-12-18T08:36:12.443904", "MEAN_MOTION": 14.74619432, "ECCENTRICITY": 0.00093202, "INCLINATION": 97.9796, "RA_OF_ASC_NODE": 122.9557, "ARG_OF_PERICENTER": 294.4715, "MEAN_ANOMALY": 65.5522, "EPHEMERIS_TYPE": 0, "CLASSIFICATION_TYPE": "U", "NORAD_CAT_ID": 35682, "ELEMENT_SET_NO": 999, "REV_AT_EPOCH": 87844, "BSTAR": 0.00016419287, "MEAN_MOTION_DOT": 1.045e-05, "MEAN_MOTION_DDOT": 0}, "tle": {"line1": "1 35682U 09041B   25352.35847736  .00001045  00000+0  16419-3 0  9991", "line2": "2 35682  97.9796 122.9557 0009320 294.4715  65.5522 14.74619432878447"}}, "geometry": {"type": "Point", "coordinates": [96.97826826482789, 72.60144614798998]}}, {"type": "Feature", "properties": {"norad_id": 35931, "name": "OCEANSAT-2", "group": "resource", "lat": 8.642011605153447, "lon": -8.308720995828105, "alt_km": 885.8099845083334, "timestamp": "2025-12-18T23:35:48.703886+00:00", "meta": {"OBJECT_NAME": "OCEANSAT-2", "OBJECT_ID": "2009-051A", "EPOCH": "2025-12-18T14:58:36.666336", "MEAN_MOTION": 13.99623445, "ECCENTRICITY": 0.00160642, "INCLINATION": 98.2218, "RA_OF_ASC_NODE": 352.6277, "ARG_OF_PERICENTER": 29.638, "MEAN_ANOMALY": 330.5694, "EPHEMERIS_TYPE": 0, "CLASSIFICATION_TYPE": "U", "NORAD_CAT_ID": 35931, "ELEMENT_SET_NO": 999, "REV_AT_EPOCH": 85407, "BSTAR": -6.9829156e-05, "MEAN_MOTION_DOT": -1.4e-06, "MEAN_MOTION_DDOT": 0}, "tle": {"line1": "1 35931U 09051A   25352.62403549 -.00000140  00000+0 -69829-4 0  9990", "line2": "2 35931  98.2218 352.6277 0016064  29.6380 330.5694 13.99623445854070"}}, "geometry": {"type": "Point", "coordinates": [-8.308720995828105, 8.642011605153447]}}, {"type": "Feature", "properties": {"norad_id": 35946, "name": "WORLDVIEW-2 (WV-2)", "group": "resource", "lat": -80.41851438946448, "lon": -178.1008809888857, "alt_km": 776.4332312255237, "timestamp": "2025-12-18T23:35:48.703897+00:00", "meta": {"OBJECT_NAME": "WORLDVIEW-2 (WV-2)", "OBJECT_ID": "2009-055A", "EPOCH": "2025-12-18T14:00:51.330816", "MEAN_MOTION": 14.37726477, "ECCENTRICITY": 0.00049928, "INCLINATION": 98.4783, "RA_OF_ASC_NODE": 63.5882, "ARG_OF_PERICENTER": 56.4122, "MEAN_ANOMALY": 303.7541, "EPHEMERIS_TYPE": 0, "CLASSIFICATION_TYPE": "U", "NORAD_CAT_ID": 35946, "ELEMENT_SET_NO": 999, "REV_AT_EPOCH": 84969, "BSTAR": 5.8184908e-05, "MEAN_MOTION_DOT": 1.31e-06, "MEAN_MOTION_DDOT": 0}, "tle": {"line1": "1 35946U 09055A   25352.58392744  .00000131  00000+0  58185-4 0  9990", "line2": "2 35946  98.4783  63.5882 0004992  56.4122 303.7541 14.37726477849691"}}, "geometry": {"type": "Point", "coordinates": [-178.1008809888857, -80.41851438946448]}}, {"type": "Feature", "properties": {"norad_id": 36036, "name": "SMOS", "group": "resource", "lat": -13.666688514538807, "lon": -179.99254623917264, "alt_km": 763.941248240104, "timestamp": "2025-12-18T23:35:48.703908+00:00", "meta": {"OBJECT_NAME": "SMOS", "OBJECT_ID": "2009-059A", "EPOCH": "2025-12-18T11:59:07.501632", "MEAN_MOTION": 14.39746322, "ECCENTRICITY": 0.00010898, "INCLINATION": 98.438, "RA_OF_ASC_NODE": 177.4625, "ARG_OF_PERICENTER": 82.1579, "MEAN_ANOMALY": 277.9733, "EPHEMERIS_TYPE": 0, "CLASSIFICATION_TYPE": "U", "NORAD_CAT_ID": 36036, "ELEMENT_SET_NO": 999, "REV_AT_EPOCH": 84745, "BSTAR": 0.00011639621, "MEAN_MOTION_DOT": 3.21e-06, "MEAN_MOTION_DDOT": 0}, "tle": {"line1": "1 36036U 09059A   25352.49939238  .00000321  00000+0  11640-3 0  9995", "line2": "2 36036  98.4380 177.4625 0001089  82.1579 277.9733 14.39746322847451"}}, "geometry": {"type": "Point", "coordinates": [-179.99254623917264, -13.666688514538807]}}, {"type": "Feature", "properties": {"norad_id": 36110, "name": "YAOGAN-7", "group": "resource", "lat": -55.23916707518191, "lon": -113.54639985195895, "alt_km": 631.7033102208316, "timestamp": "2025-12-18T23:35:48.703918+00:00", "meta": {"OBJECT_NAME": "YAOGAN-7", "OBJECT_ID": "2009-069A", "EPOCH": "2025-12-18T14:05:57.484032", "MEAN_MOTION": 14.77740774, "ECCENTRICITY": 0.00233388, "INCLINATION": 98.0296, "RA_OF_ASC_NODE": 234.3234, "ARG_OF_PERICENTER": 261.3362, "MEAN_ANOMALY": 98.5204, "EPHEMERIS_TYPE": 0, "CLASSIFICATION_TYPE": "U", "NORAD_CAT_ID": 36110, "ELEMENT_SET_NO": 999, "REV_AT_EPOCH": 86295, "BSTAR": 7.4108113e-05, "MEAN_MOTION_DOT": 4.8e-06, "MEAN_MOTION_DDOT": 0}, "tle": {"line1": "1 36110U 09069A   25352.58747088  .00000480  00000+0  74108-4 0  9994", "line2": "2 36110  98.0296 234.3234 0023338 261.3362  98.5204 14.77740774862956"}}, "geometry": {"type": "Point", "coordinates": [-113.54639985195895, -55.23916707518191]}}, {"type": "Feature", "properties": {"norad_id": 36605, "name": "TANDEM-X", "group": "resource", "lat": 38.17826565190249, "lon": -7.629007873039398, "alt_km": 504.6828865330317, "timestamp": "2025-12-18T23:35:48.703929+00:00", "meta": {"OBJECT_NAME": "TANDEM-X", "OBJECT_ID": "2010-030A", "EPOCH": "2025-12-18T13:56:33.642816", "MEAN_MOTION": 15.1915139, "ECCENTRICITY": 0.00018106, "INCLINATION": 97.4444, "RA_OF_ASC_NODE": 357.8759, "ARG_OF_PERICENTER": 79.4695, "MEAN_ANOMALY": 280.6743, "EPHEMERIS_TYPE": 0, "CLASSIFICATION_TYPE": "U", "NORAD_CAT_ID": 36605, "ELEMENT_SET_NO": 999, "REV_AT_EPOCH": 85922, "BSTAR": 3.9209338e-05, "MEAN_MOTION_DOT": 7.56e-06, "MEAN_MOTION_DDOT": 0}, "tle": {"line1": "1 36605U 10030A   25352.58094494  .00000756  00000+0  39209-4 0  9998", "line2": "2 36605  97.4444 357.8759 0001810  79.4695 280.6743 15.19151390859229"}}, "geometry": {"type": "Point", "coordinates": [-7.629007873039398, 38.17826565190249]}}, {"type": "Feature", "properties": {"norad_id": 36795, "name": "CARTOSAT-2B", "group": "resource", "lat": -71.68784982058804, "lon": -162.60668489878282, "alt_km": 649.3444753386229, "timestamp": "2025-12-18T23:35:48.703939+00:00", "meta": {"OBJECT_NAME": "CARTOSAT-2B", "OBJECT_ID": "2010-035A", "EPOCH": "2025-12-18T14:20:05.868960", "MEAN_MOTION": 14.78733695, "ECCENTRICITY": 0.00128993, "INCLINATION": 97.7852, "RA_OF_ASC_NODE": 41.4377, "ARG_OF_PERICENTER": 59.1637, "MEAN_ANOMALY": 301.0842, "EPHEMERIS_TYPE": 0, "CLASSIFICATION_TYPE": "U", "NORAD_CAT_ID": 36795, "ELEMENT_SET_NO": 999, "REV_AT_EPOCH": 83316, "BSTAR": 9.7408567e-05, "MEAN_MOTION_DOT": 6.66e-06, "MEAN_MOTION_DDOT": 0}, "tle": {"line1": "1 36795U 10035A   25352.59729015  .00000666  00000+0  97409-4 0  9994", "line2": "2 36795  97.7852  41.4377 0012899  59.1637 301.0842 14.78733695833168"}}, "geometry": {"type": "Point", "coordinates": [-162.60668489878282, -71.68784982058804]}}, {"type": "Feature", "properties": {"norad_id": 36834, "name": "YAOGAN-10", "group": "resource", "lat": 72.31057174901659, "lon": -141.38496089368007, "alt_km": 606.8850242499684, "timestamp": "2025-12-18T23:35:48.703950+00:00", "meta": {"OBJECT_NAME": "YAOGAN-10", "OBJECT_ID": "2010-038A", "EPOCH": "2025-12-18T15:30:01.602432", "MEAN_MOTION": 14.84631195, "ECCENTRICITY": 0.00014349, "INCLINATION": 97.9137, "RA_OF_ASC_NODE": 12.4228, "ARG_OF_PERICENTER": 80.7192, "MEAN_ANOMALY": 23.1848, "EPHEMERIS_TYPE": 0, "CLASSIFICATION_TYPE": "U", "NORAD_CAT_ID": 36834, "ELEMENT_SET_NO": 999, "REV_AT_EPOCH": 83041, "BSTAR": 0.00024946567, "MEAN_MOTION_DOT": 2.055e-05, "MEAN_MOTION_DDOT": 0}, "tle": {"line1": "1 36834U 10038A   25352.64585188  .00002055  00000+0  24947-3 0  9998", "line2": "2 36834  97.9137  12.4228 0001434  80.7192  23.1848 14.84631195830414"}}, "geometry": {"type": "Point", "coordinates": [-141.38496089368007, 72.31057174901659]}}]}